{"format":"tle-catalog-v1","generatedAt":"2026-07-01T14:19:31.438Z","count":19018,"entries":[{"name":"ASTEX 1","line1":"1 05560U 71089A   26182.07309640  .00000545  00000+0  13819-3 0  9997","line2":"2 05560  92.6998 188.3276 0017749  65.4263 294.8791 14.50862606878742"},{"name":"ATLAS CENTAUR 2","line1":"1 00694U 63047A   26181.99125613  .00001077  00000+0  11975-3 0  9993","line2":"2 00694  30.3547 282.1986 0545810 359.2414   0.7335 14.12542112147654"},{"name":"ATLAS CENTAUR R/B","line1":"1 06155U 72065B   26182.19408255  .00001079  00000+0  14909-3 0  9992","line2":"2 06155  35.0031   0.4257 0034202 246.6164 113.0937 14.77947509858063"},{"name":"COSMOS 1536","line1":"1 14699U 84013A   26182.00623699  .00007347  00000+0  29083-3 0  9994","line2":"2 14699  82.5445 355.0783 0012809 240.9847 119.0108 15.25199641289882"},{"name":"ISIS 1","line1":"1 03669U 69009A   26181.82250875  .00000045  00000+0  29544-4 0  9999","line2":"2 03669  88.4439 142.9017 1706708 220.6748 125.3776 11.30435208361316"},{"name":"OAO 2","line1":"1 03597U 68110A   26182.19653883  .00000216  00000+0  63301-4 0  9997","line2":"2 03597  34.9948 351.4568 0005231  20.2276 339.8621 14.47357534 35558"},{"name":"OAO 3 (COPERNICUS)","line1":"1 06153U 72065A   26181.63854484  .00000297  00000+0  65281-4 0  9998","line2":"2 06153  35.0070  13.7596 0006599 357.9192  57.3799 14.60067623862717"},{"name":"SEASAT 1","line1":"1 10967U 78064A   26182.14234529  .00000261  00000+0  11122-3 0  9995","line2":"2 10967 108.0180   3.5837 0001424 242.8805 117.2195 14.46252921522910"},{"name":"SERT 2","line1":"1 04327U 70009A   26182.09016514 -.00000003  00000+0  52006-4 0  9997","line2":"2 04327  99.2841 119.0571 0004040 229.6002 151.3778 13.58740138795298"},{"name":"SL-14 R/B","line1":"1 11267U 79011B   26182.19211370  .00000586  00000+0  55128-4 0  9991","line2":"2 11267  82.5241 348.8617 0016987  42.5952 317.6581 14.92027423545702"},{"name":"SL-14 R/B","line1":"1 11672U 80005B   26182.14572837  .00000527  00000+0  50566-4 0  9995","line2":"2 11672  82.5132 199.5991 0016706 140.6680 219.5756 14.91039986493391"},{"name":"SL-14 R/B","line1":"1 13553U 82092B   26182.13449454  .00000413  00000+0  43570-4 0  9991","line2":"2 13553  82.5670  35.2513 0018804 286.1956 221.1055 14.86757037345785"},{"name":"SL-14 R/B","line1":"1 14820U 84027B   26182.15296105  .00000500  00000+0  54269-4 0  9998","line2":"2 14820  82.5423 138.6207 0016912 321.9803  38.0219 14.86070544264489"},{"name":"SL-3 R/B","line1":"1 00877U 64053B   26181.87929654  .00000155  00000+0  54210-4 0  9994","line2":"2 00877  65.0778 359.3653 0080682 256.8150 102.3939 14.61432892283338"},{"name":"SL-3 R/B","line1":"1 05118U 71028B   26182.13748525  .00066372  00000+0  52231-3 0  9996","line2":"2 05118  81.2330 270.8694 0014374 230.6932 129.3052 15.71084457  6431"},{"name":"SL-3 R/B","line1":"1 10114U 77057B   26182.17950645  .00012784  00000+0  24492-3 0  9994","line2":"2 10114  97.5839 359.4003 0005946 221.4030 138.6770 15.48158270685877"},{"name":"SL-3 R/B","line1":"1 12465U 81046B   26182.18475437  .00014998  00000+0  32109-3 0  9993","line2":"2 12465  81.2300 153.2033 0016975 349.4870  10.6016 15.44495643455939"},{"name":"SL-3 R/B","line1":"1 12904U 81103B   26182.11997336  .00005448  00000+0  23444-3 0  9997","line2":"2 12904  81.1587  80.2644 0011462 263.7423  96.2504 15.22397501990484"},{"name":"SL-3 R/B","line1":"1 13068U 82013B   26182.15281402  .00004010  00000+0  16891-3 0  9996","line2":"2 13068  81.1730  27.6632 0022334 154.0058 206.2301 15.22876488421612"},{"name":"SL-3 R/B","line1":"1 13154U 82039B   26182.21019247  .00003823  00000+0  22794-3 0  9993","line2":"2 13154  81.1486  84.8853 0027584 307.7145  52.1580 15.10627454398773"},{"name":"SL-3 R/B","line1":"1 13403U 82079B   26182.15000635  .00005670  00000+0  21826-3 0  9995","line2":"2 13403  81.1454  58.9709 0024653 139.0602 221.2489 15.25903870394997"},{"name":"SL-3 R/B","line1":"1 13819U 83010B   26182.13785205  .00016541  00000+0  29748-3 0  9993","line2":"2 13819  81.0999 222.7792 0014517  14.7109 345.4556 15.49588376375497"},{"name":"SL-3 R/B","line1":"1 14208U 83075B   26182.16350891  .00012090  00000+0  29557-3 0  9992","line2":"2 14208  97.6096 191.2406 0020862 177.6010 182.5339 15.40742199347611"},{"name":"SL-8 R/B","line1":"1 02802U 67045B   26182.13338240  .00000256  00000+0  78172-4 0  9998","line2":"2 02802  74.0106 136.2115 0063067 116.8181 243.9445 14.45688620105415"},{"name":"SL-8 R/B","line1":"1 03230U 68040B   26182.08659428  .00002845  00000+0  20818-3 0  9997","line2":"2 03230  74.0313  81.8648 0025726 232.7834 127.1007 15.03884901107054"},{"name":"SL-8 R/B","line1":"1 05730U 71119B   26182.12462218  .00005009  00000+0  25699-3 0  9996","line2":"2 05730  73.8890 323.3334 0543438 266.5021  87.3859 14.39599470671805"},{"name":"SL-8 R/B","line1":"1 08459U 75112B   26182.09128576  .00000176  00000+0  66518-4 0  9992","line2":"2 08459  74.0592 170.2944 0016658 235.4807 124.4775 14.38252800648176"},{"name":"SL-8 R/B","line1":"1 11574U 79089B   26182.14564716  .00000219  00000+0  73942-4 0  9994","line2":"2 11574  74.0681 241.0183 0015420  19.7936 340.3815 14.42410025452460"},{"name":"SL-8 R/B","line1":"1 12139U 81003B   26182.09427072  .00020437  00000+0  49115-3 0  9996","line2":"2 12139  82.9347 184.8466 0250683 142.6052 219.2929 15.14646100331821"},{"name":"SL-8 R/B","line1":"1 15483U 85006B   26182.07985713  .00000183  00000+0  69323-4 0  9997","line2":"2 15483  74.0456  52.4990 0019183 297.5388 173.7753 14.37840239170329"},{"name":"THOR AGENA D R/B","line1":"1 00733U 64002A   26182.04133573  .00000206  00000+0  90670-4 0  9993","line2":"2 00733  99.1151 201.5205 0031809 289.1560  70.6181 14.34071250254548"}]}