OBJECT_NAME,OBJECT_ID,EPOCH,MEAN_MOTION,ECCENTRICITY,INCLINATION,RA_OF_ASC_NODE,ARG_OF_PERICENTER,MEAN_ANOMALY,EPHEMERIS_TYPE,CLASSIFICATION_TYPE,NORAD_CAT_ID,ELEMENT_SET_NO,REV_AT_EPOCH,BSTAR,MEAN_MOTION_DOT,MEAN_MOTION_DDOT
ATLAS CENTAUR 2,1963-047A,2026-06-30T23:47:24.529632,14.12542112,.054581,30.3547,282.1986,359.2414,0.7335,0,U,694,999,14765,.11975E-3,.1077E-4,0
THOR AGENA D R/B,1964-002A,2026-07-01T00:59:31.407072,14.34071250,.0031809,99.1151,201.5205,289.1560,70.6181,0,U,733,999,25454,.9067E-4,.206E-5,0
SL-3 R/B,1964-053B,2026-06-30T21:06:11.221056,14.61432892,.0080682,65.0778,359.3653,256.8150,102.3939,0,U,877,999,28333,.5421E-4,.155E-5,0
SL-8 R/B,1967-045B,2026-07-01T03:12:04.239360,14.45688620,.0063067,74.0106,136.2115,116.8181,243.9445,0,U,2802,999,10541,.78172E-4,.256E-5,0
SL-8 R/B,1968-040B,2026-07-01T02:04:41.745792,15.03884901,.0025726,74.0313,81.8648,232.7834,127.1007,0,U,3230,999,10705,.20818E-3,.2845E-4,0
OAO 2,1968-110A,2026-07-01T04:43:00.954912,14.47357534,.0005231,34.9948,351.4568,20.2276,339.8621,0,U,3597,999,3555,.63301E-4,.216E-5,0
ISIS 1,1969-009A,2026-06-30T19:44:24.756000,11.30435208,.17067084,88.4439,142.9017,220.6748,125.3776,0,U,3669,999,36131,.2954355E-4,.45E-6,0
SERT 2,1970-009A,2026-07-01T02:09:50.268096,13.58740138,.000404,99.2841,119.0571,229.6002,151.3778,0,U,4327,999,79529,.52006E-4,-.3E-7,0
SL-3 R/B,1971-028B,2026-07-01T03:17:58.725600,15.71084457,.0014374,81.2330,270.8694,230.6932,129.3052,0,U,5118,999,643,.52231E-3,.66372E-3,0
ASTEX 1,1971-089A,2026-07-01T01:45:15.528960,14.50862606,.0017749,92.6998,188.3276,65.4263,294.8791,0,U,5560,999,87874,.13819E-3,.545E-5,0
SL-8 R/B,1971-119B,2026-07-01T02:59:27.356352,14.39599470,.0543438,73.8890,323.3334,266.5021,87.3859,0,U,5730,999,67180,.25699E-3,.5009E-4,0
OAO 3 (COPERNICUS),1972-065A,2026-06-30T15:19:30.274176,14.60067623,.00065993,35.0070,13.7596,357.9192,57.3799,0,U,6153,999,86271,.65281119E-4,.297E-5,0
ATLAS CENTAUR R/B,1972-065B,2026-07-01T04:39:28.732320,14.77947509,.0034202,35.0031,0.4257,246.6164,113.0937,0,U,6155,999,85806,.14909E-3,.1079E-4,0
SL-8 R/B,1975-112B,2026-07-01T02:11:27.089664,14.38252800,.0016658,74.0592,170.2944,235.4807,124.4775,0,U,8459,999,64817,.66518E-4,.176E-5,0
SL-3 R/B,1977-057B,2026-07-01T04:18:29.357280,15.48158270,.0005946,97.5839,359.4003,221.4030,138.6770,0,U,10114,999,68587,.24492E-3,.12784E-3,0
SEASAT 1,1978-064A,2026-07-01T03:24:58.633056,14.46252921,.0001424,108.0180,3.5837,242.8805,117.2195,0,U,10967,999,52291,.11122E-3,.261E-5,0
SL-14 R/B,1979-011B,2026-07-01T04:36:38.623680,14.92027423,.0016987,82.5241,348.8617,42.5952,317.6581,0,U,11267,999,54570,.55128E-4,.586E-5,0
SL-8 R/B,1979-089B,2026-07-01T03:29:43.914624,14.42410025,.001542,74.0681,241.0183,19.7936,340.3815,0,U,11574,999,45246,.73942E-4,.219E-5,0
SL-14 R/B,1980-005B,2026-07-01T03:29:50.931168,14.91039986,.0016706,82.5132,199.5991,140.6680,219.5756,0,U,11672,999,49339,.50566E-4,.527E-5,0
SL-8 R/B,1981-003B,2026-07-01T02:15:44.990208,15.14646100,.0250683,82.9347,184.8466,142.6052,219.2929,0,U,12139,999,33182,.49115E-3,.20437E-3,0
SL-3 R/B,1981-046B,2026-07-01T04:26:02.777568,15.44495643,.0016975,81.2300,153.2033,349.4870,10.6016,0,U,12465,999,45593,.32109E-3,.14998E-3,0
SL-3 R/B,1981-103B,2026-07-01T02:52:45.698304,15.22397501,.0011462,81.1587,80.2644,263.7423,96.2504,0,U,12904,999,99048,.23444E-3,.5448E-4,0
SL-3 R/B,1982-013B,2026-07-01T03:40:03.131328,15.22876488,.0022334,81.1730,27.6632,154.0058,206.2301,0,U,13068,999,42161,.16891E-3,.401E-4,0
SL-3 R/B,1982-039B,2026-07-01T05:02:40.629408,15.10627454,.0027584,81.1486,84.8853,307.7145,52.1580,0,U,13154,999,39877,.22794E-3,.3823E-4,0
SL-3 R/B,1982-079B,2026-07-01T03:36:00.548640,15.25903870,.0024653,81.1454,58.9709,139.0602,221.2489,0,U,13403,999,39499,.21826E-3,.567E-4,0
SL-14 R/B,1982-092B,2026-07-01T03:13:40.328256,14.86757037,.0018804,82.5670,35.2513,286.1956,221.1055,0,U,13553,999,34578,.4357E-4,.413E-5,0
SL-3 R/B,1983-010B,2026-07-01T03:18:30.417120,15.49588376,.0014517,81.0999,222.7792,14.7109,345.4556,0,U,13819,999,37549,.29748E-3,.16541E-3,0
SL-3 R/B,1983-075B,2026-07-01T03:55:27.169824,15.40742199,.0020862,97.6096,191.2406,177.6010,182.5339,0,U,14208,999,34761,.29557E-3,.1209E-3,0
COSMOS 1536,1984-013A,2026-07-01T00:08:58.875936,15.25199641,.0012809,82.5445,355.0783,240.9847,119.0108,0,U,14699,999,28988,.29083E-3,.7347E-4,0
SL-14 R/B,1984-027B,2026-07-01T03:40:15.834720,14.86070544,.0016912,82.5423,138.6207,321.9803,38.0219,0,U,14820,999,26448,.54269E-4,.5E-5,0
SL-8 R/B,1985-006B,2026-07-01T01:54:59.656032,14.37840239,.0019183,74.0456,52.4990,297.5388,173.7753,0,U,15483,999,17032,.69323E-4,.183E-5,0
